NORAD_CAT_ID,OBJECT_NAME,OBJECT_TYPE,EPOCH,MEAN_MOTION,ECCENTRICITY,INCLINATION,RA_OF_ASC_NODE,ARG_OF_PERICENTER,MEAN_ANOMALY,BSTAR,MEAN_MOTION_DOT,MEAN_MOTION_DDOT,TLE_LINE0,TLE_LINE1,TLE_LINE2,SEMIMAJOR_AXIS,PERIOD,APOGEE,PERIGEE,DECAYED
53797.0,STARLINK-4723,PAYLOAD,2024-03-18 22:34:03,15.08865767,0.0001329,53.2146,269.2553,106.4954,253.6184,0.00057968,8.956e-05,0.0,0 STARLINK-4723,1 53797U 22111AA  24078.94031580  .00008956  00000-0  57968-3 0  9995,2 53797  53.2146 269.2553 0001329 106.4954 253.6184 15.08865767 84879,6917.802,95.436,540.586,538.747,0.0
53797.0,STARLINK-4723,PAYLOAD,2024-03-19 19:14:03,15.08860494,0.000122,53.2147,265.3896,87.3333,272.7799,0.0009461,0.0001481,0.0,0 STARLINK-4723,1 53797U 22111AA  24079.80143203  .00014810  00000-0  94610-3 0  9998,2 53797  53.2147 265.3896 0001220  87.3333 272.7799 15.08860494 84219,6917.818,95.436,540.527,538.839,0.0
53797.0,STARLINK-4723,PAYLOAD,2024-03-20 11:07:55,15.08841906,0.0001828,53.2156,262.4152,85.553,274.5671,0.00039115,5.943e-05,0.0,0 STARLINK-4723,1 53797U 22111AA  24080.46383604  .00005943  00000-0  39115-3 0  9999,2 53797  53.2156 262.4152 0001828  85.5530 274.5671 15.08841906 84312,6917.875,95.437,541.004,538.475,0.0
53797.0,STARLINK-4723,PAYLOAD,2024-03-20 12:43:18,15.08838565,0.0001595,53.2158,262.1166,114.158,245.9579,0.0001255,1.71e-05,0.0,0 STARLINK-4723,1 53797U 22111AA  24080.53007512  .00001710  00000-0  12550-3 0  9990,2 53797  53.2158 262.1166 0001595 114.1580 245.9579 15.08838565 85116,6917.885,95.438,540.853,538.646,0.0
53797.0,STARLINK-4723,PAYLOAD,2024-03-20 17:29:27,15.08853234,0.0001563,53.2153,261.2231,110.0122,250.1038,0.00030763,4.613e-05,0.0,0 STARLINK-4723,1 53797U 22111AA  24080.72879216  .00004613  00000-0  30763-3 0  9990,2 53797  53.2153 261.2231 0001563 110.0122 250.1038 15.08853234 85147,6917.84,95.437,540.786,538.624,0.0
53797.0,STARLINK-4723,PAYLOAD,2024-03-21 10:58:42,15.08848598,0.0001487,53.2158,257.9617,96.7755,263.3406,0.00024717,3.649e-05,0.0,0 STARLINK-4723,1 53797U 22111AA  24081.45743197  .00003649  00000-0  24717-3 0  9999,2 53797  53.2158 257.9617 0001487  96.7755 263.3406 15.08848598 85253,6917.854,95.437,540.748,538.69,0.0
53797.0,STARLINK-4723,PAYLOAD,2024-03-21 20:31:01,15.08840244,0.0001339,53.2151,256.1731,95.501,264.6135,7.5857e-05,9.2e-06,0.0,0 STARLINK-4723,1 53797U 22111AA  24081.85487446  .00000920  00000-0  75857-4 0  9996,2 53797  53.2151 256.1731 0001339  95.5010 264.6135 15.08840244 84523,6917.88,95.438,540.671,538.818,0.0
53797.0,STARLINK-4723,PAYLOAD,2024-03-21 22:06:24,15.08848749,0.0001143,53.2143,255.8707,73.1473,286.9644,0.00024011,3.536e-05,0.0,0 STARLINK-4723,1 53797U 22111AA  24081.92111124  .00003536  00000-0  24011-3 0  9992,2 53797  53.2143 255.8707 0001143  73.1473 286.9644 15.08848749 85320,6917.854,95.437,540.509,538.928,0.0
53797.0,STARLINK-4723,PAYLOAD,2024-03-22 20:21:47,15.08855514,0.0001371,53.2152,251.7061,85.1027,275.0121,0.00035123,5.309e-05,0.0,0 STARLINK-4723,1 53797U 22111AA  24082.84846964  .00005309  00000-0  35123-3 0  9997,2 53797  53.2152 251.7061 0001371  85.1027 275.0121 15.08855514 85461,6917.833,95.437,540.646,538.75,0.0
53797.0,STARLINK-4723,PAYLOAD,2024-03-23 10:40:16,15.08833349,0.0001189,53.2145,249.0355,85.9443,274.1685,7.1566e-06,-1.74e-06,0.0,0 STARLINK-4723,1 53797U 22111AA  24083.44463988 -.00000174  00000-0  71566-5 0  9994,2 53797  53.2145 249.0355 0001189  85.9443 274.1685 15.08833349 84765,6917.901,95.438,540.588,538.943,0.0
53797.0,STARLINK-4723,PAYLOAD,2024-03-23 20:12:35,15.08847791,0.0001172,53.2137,247.2471,106.3599,253.7522,0.0010103,0.00015831,0.0,0 STARLINK-4723,1 53797U 22111AA  24083.84207644  .00015831  00000-0  10103-2 0  9995,2 53797  53.2137 247.2471 0001172 106.3599 253.7522 15.08847791 84823,6917.857,95.437,540.532,538.911,0.0
53797.0,STARLINK-4723,PAYLOAD,2024-03-24 04:09:31,15.08841387,0.0001296,53.2156,245.761,88.1855,271.9285,0.00076541,0.00011915,0.0,0 STARLINK-4723,1 53797U 22111AA  24084.17327987  .00011915  00000-0  76541-3 0  9993,2 53797  53.2156 245.7610 0001296  88.1855 271.9285 15.08841387 84879,6917.876,95.437,540.638,538.845,0.0
53797.0,STARLINK-4723,PAYLOAD,2024-03-24 20:03:22,15.08899083,0.0001441,53.2158,242.7847,89.4312,270.6845,0.0028579,0.00045564,0.0,0 STARLINK-4723,1 53797U 22111AA  24084.83567203  .00045564  00000-0  28579-2 0  9997,2 53797  53.2158 242.7847 0001441  89.4312 270.6845 15.08899083 84979,6917.7,95.434,540.562,538.568,0.0
53797.0,STARLINK-4723,PAYLOAD,2024-03-25 04:00:17,15.08861665,7.48e-05,53.2157,241.2991,135.762,224.3432,0.00095178,0.00014901,0.0,0 STARLINK-4723,1 53797U 22111AA  24085.16687016  .00014901  00000-0  95178-3 0  9990,2 53797  53.2157 241.2991 0000748 135.7620 224.3432 15.08861665 85028,6917.814,95.436,540.197,539.162,0.0
53797.0,STARLINK-4723,PAYLOAD,2024-03-25 13:32:36,15.08849268,0.0001595,53.2151,239.5158,110.8417,249.2746,0.0017023,0.00026915,0.0,0 STARLINK-4723,1 53797U 22111AA  24085.56431684  .00026915  00000-0  17023-2 0  9992,2 53797  53.2151 239.5158 0001595 110.8417 249.2746 15.08849268 85081,6917.852,95.437,540.82,538.614,0.0
53797.0,STARLINK-4723,PAYLOAD,2024-03-25 16:43:23,15.08853118,0.0001512,53.2155,238.9228,91.313,268.8035,0.0022189,0.00035215,0.0,0 STARLINK-4723,1 53797U 22111AA  24085.69679809  .00035215  00000-0  22189-2 0  9991,2 53797  53.2155 238.9228 0001512  91.3130 268.8035 15.08853118 85896,6917.84,95.437,540.751,538.659,0.0
53797.0,STARLINK-4723,PAYLOAD,2024-03-26 13:23:25,15.08830511,0.0001422,53.217,235.052,119.2986,240.8148,0.0010291,0.00016124,0.0,0 STARLINK-4723,1 53797U 22111AA  24086.55792861  .00016124  00000-0  10291-2 0  9990,2 53797  53.2170 235.0520 0001422 119.2986 240.8148 15.08830511 85230,6917.909,95.438,540.758,538.791,0.0
53797.0,STARLINK-4723,PAYLOAD,2024-03-26 14:58:48,15.08831422,0.0001441,53.2165,234.7545,105.995,254.1201,0.0012228,0.00019222,0.0,0 STARLINK-4723,1 53797U 22111AA  24086.62417048  .00019222  00000-0  12228-2 0  9993,2 53797  53.2165 234.7545 0001441 105.9950 254.1201 15.08831422 86030,6917.907,95.438,540.768,538.775,0.0
53797.0,STARLINK-4723,PAYLOAD,2024-03-26 16:34:11,15.08827535,0.0001677,53.2171,234.458,96.6484,263.4699,0.00081748,0.00012742,0.0,0 STARLINK-4723,1 53797U 22111AA  24086.69041190  .00012742  00000-0  81748-3 0  9995,2 53797  53.2171 234.4580 0001677  96.6484 263.4699 15.08827535 86047,6917.918,95.438,540.944,538.623,0.0
53797.0,STARLINK-4723,PAYLOAD,2024-03-27 13:14:12,15.08835303,0.0001315,53.2161,230.5951,98.1509,261.9632,0.00046579,7.132e-05,0.0,0 STARLINK-4723,1 53797U 22111AA  24087.55153706  .00007132  00000-0  46579-3 0  9998,2 53797  53.2161 230.5951 0001315  98.1509 261.9632 15.08835303 85387,6917.895,95.438,540.669,538.85,0.0
53797.0,STARLINK-4723,PAYLOAD,2024-03-27 14:49:35,15.08836756,0.0001512,53.2165,230.2977,100.047,260.0693,0.00044036,6.727e-05,0.0,0 STARLINK-4723,1 53797U 22111AA  24087.61777659  .00006727  00000-0  44036-3 0  9999,2 53797  53.2165 230.2977 0001512 100.0470 260.0693 15.08836756 86184,6917.89,95.438,540.801,538.709,0.0
53797.0,STARLINK-4723,PAYLOAD,2024-03-27 16:24:58,15.08844121,0.0001355,53.2168,230.0049,98.4301,261.6844,0.00074523,0.00011594,0.0,0 STARLINK-4723,1 53797U 22111AA  24087.68401585  .00011594  00000-0  74523-3 0  9990,2 53797  53.2168 230.0049 0001355  98.4301 261.6844 15.08844121 86194,6917.868,95.437,540.67,538.795,0.0
53797.0,STARLINK-4723,PAYLOAD,2024-03-28 01:57:17,15.08853696,0.0001323,53.2166,228.2204,97.3768,262.7374,0.00069144,0.00010738,0.0,0 STARLINK-4723,1 53797U 22111AA  24088.08145319  .00010738  00000-0  69144-3 0  9997,2 53797  53.2166 228.2204 0001323  97.3768 262.7374 15.08853696 85460,6917.839,95.437,540.619,538.788,0.0
53797.0,STARLINK-4723,PAYLOAD,2024-03-28 13:04:59,15.08853588,0.0001561,53.2167,226.1365,87.1642,272.9528,0.00044494,6.803e-05,0.0,0 STARLINK-4723,1 53797U 22111AA  24088.54513127  .00006803  00000-0  44494-3 0  9993,2 53797  53.2167 226.1365 0001561  87.1642 272.9528 15.08853588 86328,6917.839,95.437,540.784,538.624,0.0
53797.0,STARLINK-4723,PAYLOAD,2024-03-29 12:55:46,15.0885216,0.0001578,53.217,221.6764,79.7241,280.3929,0.00029742,4.45e-05,0.0,0 STARLINK-4723,1 53797U 22111AA  24089.53872775  .00004450  00000-0  29742-3 0  9995,2 53797  53.2170 221.6764 0001578  79.7241 280.3929 15.08852160 85686,6917.843,95.437,540.8,538.617,0.0
53797.0,STARLINK-4723,PAYLOAD,2024-03-29 17:41:55,15.08854751,0.0001851,53.2167,220.7838,97.4938,262.6264,0.00033134,4.991e-05,0.0,0 STARLINK-4723,1 53797U 22111AA  24089.73744441  .00004991  00000-0  33134-3 0  9995,2 53797  53.2167 220.7838 0001851  97.4938 262.6264 15.08854751 86503,6917.835,95.437,540.981,538.42,0.0
53797.0,STARLINK-4723,PAYLOAD,2024-03-30 12:46:33,15.08839494,0.000178,53.2176,217.2182,85.8887,274.2309,-2.3169e-05,-6.57e-06,0.0,0 STARLINK-4723,1 53797U 22111AA  24090.53232803 -.00000657  00000-0 -23169-4 0  9994,2 53797  53.2176 217.2182 0001780  85.8887 274.2309 15.08839494 85832,6917.882,95.438,540.978,538.516,0.0
53797.0,STARLINK-4723,PAYLOAD,2024-03-30 14:21:56,15.08841363,0.0001787,53.2171,216.9208,66.5231,293.5949,-3.6628e-05,-8.71e-06,0.0,0 STARLINK-4723,1 53797U 22111AA  24090.59856857 -.00000871  00000-0 -36628-4 0  9993,2 53797  53.2171 216.9208 0001787  66.5231 293.5949 15.08841363 86639,6917.876,95.437,540.977,538.505,0.0
53797.0,STARLINK-4723,PAYLOAD,2024-03-31 14:12:43,15.08843968,0.000133,53.2135,212.4592,83.3254,276.7889,0.00023596,3.47e-05,0.0,0 STARLINK-4723,1 53797U 22111AA  24091.59216710  .00003470  00000-0  23596-3 0  9997,2 53797  53.2135 212.4592 0001330  83.3254 276.7889 15.08843968 85999,6917.868,95.437,540.653,538.813,0.0
53797.0,STARLINK-4723,PAYLOAD,2024-03-31 15:48:06,15.08847283,0.0001455,53.2145,212.1631,79.8507,280.265,0.00032259,4.851e-05,0.0,0 STARLINK-4723,1 53797U 22111AA  24091.65840670  .00004851  00000-0  32259-3 0  9992,2 53797  53.2145 212.1631 0001455  79.8507 280.2650 15.08847283 86799,6917.858,95.437,540.73,538.717,0.0
